OBJECT_NAME,OBJECT_ID,EPOCH,MEAN_MOTION,ECCENTRICITY,INCLINATION,RA_OF_ASC_NODE,ARG_OF_PERICENTER,MEAN_ANOMALY,EPHEMERIS_TYPE,CLASSIFICATION_TYPE,NORAD_CAT_ID,ELEMENT_SET_NO,REV_AT_EPOCH,BSTAR,MEAN_MOTION_DOT,MEAN_MOTION_DDOT
STARLINK-4212,2022-062S,2026-06-19T01:44:34.122624,15.08844904,.00011149,53.1604,298.8965,78.9010,281.2107,0,U,52846,999,22109,.39862427E-4,.347E-5,0
STARLINK-4206,2022-062T,2026-06-18T15:54:58.576608,15.08832809,.00012208,53.1605,300.7251,88.9890,271.1241,0,U,52847,999,22103,.1180822E-4,-.1E-5,0
STARLINK-4202,2022-062U,2026-06-19T08:15:19.929888,15.08830793,.00010596,53.1602,297.6652,88.6111,271.5002,0,U,52848,999,22113,.774456E-5,-.165E-5,0
STARLINK-4197,2022-062V,2026-06-19T14:01:04.508544,15.08849213,.00009492,53.1611,286.5873,93.1995,266.9105,0,U,52849,999,22130,.11568714E-3,.1554E-4,0
STARLINK-4187,2022-062W,2026-06-19T13:29:25.184256,15.08832269,.0001187,53.1613,297.0418,85.7505,274.3622,0,U,52850,999,22116,-.2946666E-5,-.335E-5,0
STARLINK-3809,2022-062X,2026-06-19T14:00:01.999872,15.12431307,.0001983,53.1589,286.5480,51.7740,346.8618,0,U,52851,999,575,.89274508E-3,.15427E-3,0
STARLINK-4184,2022-062Y,2026-06-19T14:06:23.739264,15.08836047,.00011646,53.1593,286.5702,86.7440,273.3685,0,U,52852,999,22130,.8430433E-5,-.154E-5,0
STARLINK-4189,2022-062Z,2026-06-19T14:00:01.999872,15.42134298,.00016994,53.2131,283.2911,80.2087,289.4836,0,U,52853,999,575,.19714504E-1,.936577E-2,0
STARLINK-4204,2022-062AA,2026-06-19T13:50:30.262560,15.08832046,.00010497,53.1601,286.6184,89.4816,270.6295,0,U,52854,999,22130,.17182025E-4,-.14E-6,0
STARLINK-4209,2022-062AB,2026-06-19T13:34:36.102432,15.08834485,.0001227,53.1614,286.6697,72.0794,288.0331,0,U,52855,999,22130,.4985184E-4,.505E-5,0
STARLINK-4201,2022-062AC,2026-06-19T13:46:35.591520,15.08831377,.00010264,53.1596,286.6803,93.3361,266.7747,0,U,52856,999,22130,.23320032E-4,.83E-6,0
STARLINK-4199,2022-062AD,2026-06-19T14:59:23.473536,15.08831193,.00011283,53.1598,286.4039,88.7869,271.3251,0,U,52857,999,22131,.30770595E-4,.202E-5,0
STARLINK-4198,2022-062AE,2026-06-19T13:39:54.386208,15.08831656,.00010963,53.1597,286.6813,96.0380,264.0736,0,U,52858,999,22130,.65859259E-4,.76E-5,0
STARLINK-4196,2022-062AF,2026-06-19T14:54:05.546592,15.08830772,.00011055,53.1595,286.4202,90.9620,269.1498,0,U,52859,999,22131,.20580189E-4,.4E-6,0
STARLINK-4191,2022-062AG,2026-06-19T13:29:18.477024,15.08827643,.00010512,53.1597,286.6852,85.1920,274.9191,0,U,52860,999,22130,.38477535E-4,.324E-5,0
STARLINK-4112,2022-062AH,2026-06-19T14:00:01.999872,15.23981404,.00023218,53.1593,286.1062,75.5365,69.4265,0,U,52861,999,579,.2481275E-2,.61017E-3,0
STARLINK-4010,2022-062AJ,2026-06-19T14:00:01.999872,15.13102035,.00013949,53.1598,286.5249,88.6456,121.1508,0,U,52862,999,580,.12908214E-2,.22891E-3,0
STARLINK-4270,2022-062AK,2026-06-19T14:00:01.999872,15.10480116,.00014825,53.1632,286.5484,54.8582,189.7035,0,U,52863,999,569,-.90658041E-3,-.15355E-3,0
STARLINK-4267,2022-062AL,2026-06-19T14:43:29.297856,15.08833482,.00011911,53.1596,286.4541,90.4729,269.6399,0,U,52864,999,22131,.23991402E-4,.94E-6,0
STARLINK-4274,2022-062AM,2026-06-19T08:00:45.326016,15.08842735,.00011573,53.1601,287.7136,86.9779,273.1345,0,U,52865,999,22127,-.60246136E-4,-.1247E-4,0
STARLINK-4272,2022-062AN,2026-06-19T14:32:53.547648,15.08835315,.00011807,53.1601,286.4873,89.5620,270.5507,0,U,52866,999,22131,-.30886751E-4,-.779E-5,0
STARLINK-4126,2022-062AP,2026-06-19T14:00:01.999872,15.12929074,.00015569,53.1592,286.5401,123.3330,219.3331,0,U,52867,999,579,.96991523E-3,.17028E-3,0
STARLINK-4261,2022-062AQ,2026-06-19T14:27:36.117504,15.08841412,.00011149,53.1601,286.5327,87.0473,273.0646,0,U,52868,999,22131,-.45279541E-4,-.1009E-4,0
STARLINK-4266,2022-062AR,2026-06-19T14:02:25.431648,15.08832414,.00010015,53.1608,276.5810,80.9113,279.1991,0,U,52869,999,22144,-.13339832E-4,-.5E-5,0
STARLINK-4207,2022-062AT,2026-06-19T13:45:14.630400,15.09551960,.00022835,53.1624,276.6285,99.5353,260.5897,0,U,52871,999,22144,.49398225E-2,.808E-3,0
STARLINK-4213,2022-062AU,2026-06-19T13:52:51.076416,15.09081445,.00008001,53.1580,276.5813,50.8966,309.2096,0,U,52872,999,22144,.19521484E-2,.31125E-3,0
STARLINK-4211,2022-062AV,2026-06-19T14:00:01.999872,15.13800010,.00016912,53.1591,276.4992,88.2117,51.1134,0,U,52873,999,570,.15087177E-2,.27357E-3,0
STARLINK-4193,2022-062AX,2026-06-19T14:00:01.999872,15.14085818,.00015567,53.1591,276.4770,90.7288,79.6339,0,U,52875,999,560,.153096E-2,.27993E-3,0
STARLINK-4200,2022-062AY,2026-06-19T14:00:01.999872,15.13582958,.00020663,53.1592,276.5528,40.6704,50.6309,0,U,52876,999,580,.10911381E-2,.19559E-3,0
STARLINK-4214,2022-062AZ,2026-06-19T00:10:27.935328,15.08821579,.00003814,53.1606,279.1922,154.2550,205.8460,0,U,52877,999,22136,-.17302667E-3,-.3039E-4,0
