STARLINK-4212           
1 52846U 22062S   26170.07261716  .00000347  00000+0  39862-4 0  9998
2 52846  53.1604 298.8965 0001114  78.9010 281.2107 15.08844904221093
STARLINK-4206           
1 52847U 22062T   26169.66317797 -.00000100  00000+0  11808-4 0  9991
2 52847  53.1605 300.7251 0001220  88.9890 271.1241 15.08832809221033
STARLINK-4202           
1 52848U 22062U   26170.34398067 -.00000165  00000+0  77446-5 0  9990
2 52848  53.1602 297.6652 0001059  88.6111 271.5002 15.08830793221133
STARLINK-4197           
1 52849U 22062V   26170.58407996  .00001554  00000+0  11569-3 0  9993
2 52849  53.1611 286.5873 0000949  93.1995 266.9105 15.08849213221302
STARLINK-4187           
1 52850U 22062W   26170.56209704 -.00000335  00000+0 -29467-5 0  9996
2 52850  53.1613 297.0418 0001187  85.7505 274.3622 15.08832269221161
STARLINK-3809           
1 52851U 22062X   26170.58335648  .00015427  00000+0  89275-3 0  9993
2 52851  53.1589 286.5480 0001983  51.7740 346.8618 15.12431307  5752
STARLINK-4184           
1 52852U 22062Y   26170.58777476 -.00000154  00000+0  84304-5 0  9995
2 52852  53.1593 286.5702 0001164  86.7440 273.3685 15.08836047221305
STARLINK-4189           
1 52853U 22062Z   26170.58335648  .00936577  00000+0  19715-1 0  9993
2 52853  53.2131 283.2911 0001699  80.2087 289.4836 15.42134298  5752
STARLINK-4204           
1 52854U 22062AA  26170.57673915 -.00000014  00000+0  17182-4 0  9993
2 52854  53.1601 286.6184 0001049  89.4816 270.6295 15.08832046221303
STARLINK-4209           
1 52855U 22062AB  26170.56569563  .00000505  00000+0  49852-4 0  9999
2 52855  53.1614 286.6697 0001227  72.0794 288.0331 15.08834485221301
STARLINK-4201           
1 52856U 22062AC  26170.57402305  .00000083  00000+0  23320-4 0  9994
2 52856  53.1596 286.6803 0001026  93.3361 266.7747 15.08831377221304
STARLINK-4199           
1 52857U 22062AD  26170.62457724  .00000202  00000+0  30771-4 0  9997
2 52857  53.1598 286.4039 0001128  88.7869 271.3251 15.08831193221319
STARLINK-4198           
1 52858U 22062AE  26170.56937947  .00000760  00000+0  65859-4 0  9995
2 52858  53.1597 286.6813 0001096  96.0380 264.0736 15.08831656221305
STARLINK-4196           
1 52859U 22062AF  26170.62089753  .00000040  00000+0  20580-4 0  9999
2 52859  53.1595 286.4202 0001105  90.9620 269.1498 15.08830772221315
STARLINK-4191           
1 52860U 22062AG  26170.56201941  .00000324  00000+0  38478-4 0  9999
2 52860  53.1597 286.6852 0001051  85.1920 274.9191 15.08827643221307
STARLINK-4112           
1 52861U 22062AH  26170.58335648  .00061017  00000+0  24813-2 0  9996
2 52861  53.1593 286.1062 0002321  75.5365  69.4265 15.23981404  5794
STARLINK-4010           
1 52862U 22062AJ  26170.58335648  .00022891  00000+0  12908-2 0  9996
2 52862  53.1598 286.5249 0001394  88.6456 121.1508 15.13102035  5808
STARLINK-4270           
1 52863U 22062AK  26170.58335648 -.00015355  00000+0 -90658-3 0  9995
2 52863  53.1632 286.5484 0001482  54.8582 189.7035 15.10480116  5690
STARLINK-4267           
1 52864U 22062AL  26170.61353354  .00000094  00000+0  23991-4 0  9993
2 52864  53.1596 286.4541 0001191  90.4729 269.6399 15.08833482221314
STARLINK-4274           
1 52865U 22062AM  26170.33385794 -.00001247  00000+0 -60246-4 0  9993
2 52865  53.1601 287.7136 0001157  86.9779 273.1345 15.08842735221270
STARLINK-4272           
1 52866U 22062AN  26170.60617532 -.00000779  00000+0 -30887-4 0  9999
2 52866  53.1601 286.4873 0001180  89.5620 270.5507 15.08835315221317
STARLINK-4126           
1 52867U 22062AP  26170.58335648  .00017028  00000+0  96992-3 0  9993
2 52867  53.1592 286.5401 0001556 123.3330 219.3331 15.12929074  5796
STARLINK-4261           
1 52868U 22062AQ  26170.60250136 -.00001009  00000+0 -45280-4 0  9994
2 52868  53.1601 286.5327 0001114  87.0473 273.0646 15.08841412221317
STARLINK-4266           
1 52869U 22062AR  26170.58501657 -.00000500  00000+0 -13340-4 0  9996
2 52869  53.1608 276.5810 0001001  80.9113 279.1991 15.08832414221445
STARLINK-4207           
1 52871U 22062AT  26170.57308600  .00080800  00000+0  49398-2 0  9990
2 52871  53.1624 276.6285 0002283  99.5353 260.5897 15.09551960221442
STARLINK-4213           
1 52872U 22062AU  26170.57836894  .00031125  00000+0  19521-2 0  9993
2 52872  53.1580 276.5813 0000800  50.8966 309.2096 15.09081445221441
STARLINK-4211           
1 52873U 22062AV  26170.58335648  .00027357  00000+0  15087-2 0  9991
2 52873  53.1591 276.4992 0001691  88.2117  51.1134 15.13800010  5700
STARLINK-4193           
1 52875U 22062AX  26170.58335648  .00027993  00000+0  15310-2 0  9998
2 52875  53.1591 276.4770 0001556  90.7288  79.6339 15.14085818  5606
STARLINK-4200           
1 52876U 22062AY  26170.58335648  .00019559  00000+0  10911-2 0  9990
2 52876  53.1592 276.5528 0002066  40.6704  50.6309 15.13582958  5808
STARLINK-4214           
1 52877U 22062AZ  26170.00726777 -.00003039  00000+0 -17303-3 0  9996
2 52877  53.1606 279.1922 0000381 154.2550 205.8460 15.08821579221363
